         0.0000000       15.4907669     6797.5648259        0.0001012       51.6472000      228.5779000       83.6309000       51.6472000
      1440.0000000       15.4908005     6797.5550219        0.0001012       51.6472000       45.8423101       78.6809855       51.6472000
      2880.0000000       15.4908340     6797.5452168        0.0001012       51.6472000      223.1405034       73.7310461       51.6472000
      4320.0000000       15.4908675     6797.5354105        0.0001011       51.6472000       40.4280134       68.7810817       51.6472000
      5760.0000000       15.4909010     6797.5256031        0.0001011       51.6472000      217.7513235       63.8310923       51.6472000
      7200.0000000       15.4909346     6797.5157947        0.0001011       51.6472000       35.0620427       58.8810779       51.6472000
      8640.0000000       15.4909681     6797.5059851        0.0001011       51.6472000      212.4103676       53.9310386       51.6472000
     10080.0000000       15.4910016     6797.4961743        0.0001011       51.6472000       29.7444135       48.9809743       51.6472000
     11520.0000000       15.4910352     6797.4863625        0.0001010       51.6472000      207.1176433       44.0308850       51.6472000
     12960.0000000       15.4910687     6797.4765495        0.0001010       51.6472000       24.4751408       39.0807707       51.6472000
     14400.0000000       15.4911023     6797.4667354        0.0001010       51.6472000      201.8731588       34.1306315       51.6472000
     15840.0000000       15.4911358     6797.4569202        0.0001010       51.6472000       19.2542389       29.1804673       51.6472000
     17280.0000000       15.4911694     6797.4471039        0.0001010       51.6472000      196.6769228       24.2302781       51.6472000
     18720.0000000       15.4912029     6797.4372864        0.0001009       51.6472000       14.0817218       19.2800640       51.6472000
     20160.0000000       15.4912365     6797.4274678        0.0001009       51.6472000      191.5289447       14.3298249       51.6472000
     21600.0000000       15.4912701     6797.4176481        0.0001009       51.6472000        8.9576026        9.3795608       51.6472000
     23040.0000000       15.4913036     6797.4078273        0.0001009       51.6472000      186.4292343        4.4292717       51.6472000
     24480.0000000       15.4913372     6797.3980054        0.0001009       51.6472000        3.8818939      359.4789577       51.6472000
     24537.2114016       15.4913385     6797.3976151        0.0001009       51.6472000      225.4891344      359.2822805       51.6472000


 1 25544U 98067A   21002.23397689 +.00001223  00000 0  30093-4 0 0999                                                                                                                                                                                                                                                                                                                                                                                                                                                            
 2 25544  51.6472  83.5832 0001012 178.9624 282.3149 15.4924848226287                                                                                                                                                                                                                                                                                                                                                                                                                                                            

         0.0000000       15.4907673     6797.5647294        0.0001012       51.6472000      282.3149000       83.5832000       51.6472000
      1440.0000000       15.4908008     6797.5549254        0.0001012       51.6472000       99.5929908       78.6332853       51.6472000
      2880.0000000       15.4908343     6797.5451202        0.0001012       51.6472000      276.8779396       73.6833456       51.6472000
      4320.0000000       15.4908678     6797.5353140        0.0001011       51.6472000       94.1787055       68.7333809       51.6472000
      5760.0000000       15.4909014     6797.5255066        0.0001011       51.6472000      271.4892549       63.7833913       51.6472000
      7200.0000000       15.4909349     6797.5156981        0.0001011       51.6472000       88.8126880       58.8333767       51.6472000
      8640.0000000       15.4909684     6797.5058885        0.0001011       51.6472000      266.1488505       53.8833371       51.6472000
     10080.0000000       15.4910020     6797.4960777        0.0001010       51.6472000       83.4949563       48.9332725       51.6472000
     11520.0000000       15.4910355     6797.4862659        0.0001011       51.6472000      260.8567314       43.9831830       51.6472000
     12960.0000000       15.4910690     6797.4764529        0.0001010       51.6472000       78.2255283       39.0330685       51.6472000
     14400.0000000       15.4911026     6797.4666388        0.0001010       51.6472000      255.6129024       34.0829290       51.6472000
     15840.0000000       15.4911361     6797.4568236        0.0001010       51.6472000       73.0044219       29.1327646       51.6472000
     17280.0000000       15.4911697     6797.4470072        0.0001010       51.6472000      250.4173686       24.1825752       51.6472000
     18720.0000000       15.4912033     6797.4371898        0.0001009       51.6472000       67.8316548       19.2323608       51.6472000
     20160.0000000       15.4912368     6797.4273712        0.0001009       51.6472000      245.2701350       14.2821214       51.6472000
     21600.0000000       15.4912704     6797.4175515        0.0001009       51.6472000       62.7072446        9.3318571       51.6472000
     23040.0000000       15.4913040     6797.4077306        0.0001009       51.6472000      240.1712071        4.3815678       51.6472000
     24480.0000000       15.4913375     6797.3979087        0.0001009       51.6472000       57.6312087      359.4312535       51.6472000
     24523.3352304       15.4913385     6797.3976131        0.0001009       51.6472000      225.4891445      359.2822788       51.6472000


 1 25544U 98067A   21002.47443213 +.00001247  00000 0  30511-4 0 0999                                                                                                                                                                                                                                                                                                                                                                                                                                                            
 2 25544  51.6471  82.3940 0000999 180.5378 182.7134 15.4924927026291                                                                                                                                                                                                                                                                                                                                                                                                                                                            

         0.0000000       15.4907751     6797.5624413        0.0000999       51.6471000      182.7134000       82.3940000       51.6471000
      1440.0000000       15.4908091     6797.5525008        0.0000999       51.6471000        0.0175294       77.4440683       51.6471000
      2880.0000000       15.4908431     6797.5425592        0.0000999       51.6471000      177.3338923       72.4941112       51.6471000
      4320.0000000       15.4908770     6797.5326164        0.0000998       51.6471000      354.6624900       67.5441288       51.6471000
      5760.0000000       15.4909110     6797.5226725        0.0000998       51.6471000      172.0033240       62.5941212       51.6471000
      7200.0000000       15.4909450     6797.5127274        0.0000998       51.6471000      349.3563959       57.6440881       51.6471000
      8640.0000000       15.4909790     6797.5027812        0.0000998       51.6471000      166.7217069       52.6940298       51.6471000
     10080.0000000       15.4910130     6797.4928338        0.0000998       51.6471000      344.0992587       47.7439462       51.6471000
     11520.0000000       15.4910470     6797.4828853        0.0000997       51.6471000      161.4890527       42.7938372       51.6471000
     12960.0000000       15.4910811     6797.4729356        0.0000997       51.6471000      338.8910903       37.8437029       51.6471000
     14400.0000000       15.4911151     6797.4629847        0.0000997       51.6471000      156.3053730       32.8935433       51.6471000
     15840.0000000       15.4911491     6797.4530328        0.0000997       51.6471000      333.7319023       27.9433584       51.6471000
     17280.0000000       15.4911831     6797.4430796        0.0000997       51.6471000      151.1706796       22.9931481       51.6471000
     18720.0000000       15.4912171     6797.4331253        0.0000997       51.6471000      328.6217063       18.0429125       51.6471000
     20160.0000000       15.4912512     6797.4231699        0.0000996       51.6471000      146.0849841       13.0926517       51.6471000
     21600.0000000       15.4912852     6797.4132133        0.0000996       51.6471000      323.5605143        8.1423654       51.6471000
     23040.0000000       15.4913193     6797.4032555        0.0000996       51.6471000      141.0482983        3.1920539       51.6471000
     24177.0796848       15.4913461     6797.3953917        0.0000996       51.6471000      225.2569934      359.2830786       51.6471000

